BEIDOU 3 (C01)          
1 36287U 10001A   22148.86532479 -.00000275  00000+0  00000+0 0  9992
2 36287   1.8513  47.3065 0004222  21.7154 269.2694  1.00275170 45315
BEIDOU 5 (C06)          
1 36828U 10036A   22149.05551515 -.00000032  00000+0  00000+0 0  9996
2 36828  54.1901 176.4060 0027952 191.3202   4.4905  1.00251713 43386
BEIDOU 6 (C04)          
1 37210U 10057A   22149.58280285 -.00000105  00000+0  00000+0 0  9997
2 37210   0.8228  45.1569 0002441 130.0923  81.6503  1.00271670 42445
BEIDOU 7 (C07)          
1 37256U 10068A   22149.17058102 -.00000226  00000+0  00000+0 0  9999
2 37256  50.2489 289.8763 0020994 183.5567 301.2409  1.00255396 41954
BEIDOU 8 (C08)          
1 37384U 11013A   22149.18684488 -.00000216  00000+0  00000+0 0  9994
2 37384  60.2652  54.4503 0017768 188.8842 177.8637  1.00261135 40830
BEIDOU 9 (C09)          
1 37763U 11038A   22149.04934734  .00000006  00000+0  00000+0 0  9995
2 37763  54.4741 178.8965 0097591 227.8700 312.4458  1.00283370 39805
BEIDOU 10 (C10)         
1 37948U 11073A   22149.26697097 -.00000171  00000+0  00000+0 0  9995
2 37948  50.3637 289.5122 0079393 216.8531 289.9309  1.00257427 38563
BEIDOU 11 (C05)         
1 38091U 12008A   22149.60726822  .00000063  00000+0  00000+0 0  9990
2 38091   1.5237  66.9299 0015167 334.4938 123.0693  1.00276206 37644
BEIDOU 12 (C11)         
1 38250U 12018A   22147.47874176 -.00000098  00000+0  00000+0 0  9996
2 38250  56.6992 354.2515 0020242 255.2053 292.8018  1.86234397 68696
BEIDOU 13 (C12)         
1 38251U 12018B   22148.74355005 -.00000100  00000+0  00000+0 0  9997
2 38251  56.6166 353.5344 0010883 257.2124 103.0145  1.86234151 68729
BEIDOU 15 (C14)         
1 38775U 12050B   22149.21288676 -.00000010  00000+0  00000+0 0  9996
2 38775  55.3903 112.3317 0015597 321.4182 189.8251  1.86231269 66108
BEIDOU 16 (C02)         
1 38953U 12059A   22149.59787543 -.00000168  00000+0  00000+0 0  9995
2 38953   1.9439  84.4117 0012143 301.2816 160.6495  1.00269505 35077
BEIDOU 17 (C31)         
1 40549U 15019A   22149.27153230 -.00000170  00000+0  00000+0 0  9996
2 40549  51.9192 312.9758 0036045 192.9435 288.9767  1.00300732 26244
BEIDOU 18 (C57)         
1 40748U 15037A   22149.18405774 -.00000102  00000+0  00000+0 0  9995
2 40748  55.8689 352.3999 0005400  34.8506 170.1631  1.86233273 46555
BEIDOU 19 (C58)         
1 40749U 15037B   22149.48573472 -.00000102  00000+0  00000+0 0  9990
2 40749  55.8716 352.3774 0004652 357.6592 184.2159  1.86231972 46552
BEIDOU 20 (C18)         
1 40938U 15053A   22149.26897212 -.00000154  00000+0  00000+0 0  9992
2 40938  51.5305 276.0932 0044360 195.2978 324.7897  1.00296723 24514
BEIDOU IGSO-6 (C13)     
1 41434U 16021A   22149.17387267 -.00000188  00000+0  00000+0 0  9991
2 41434  58.0739  53.0355 0044179 219.1124 132.2865  1.00286575 22630
BEIDOU-2 G7 (C03)       
1 41586U 16037A   22149.56230182 -.00000347  00000+0  00000+0 0  9999
2 41586   1.9390  69.6246 0008730   5.9512 124.4020  1.00267827 21954
BEIDOU-3 M1 (C19)       
1 43001U 17069A   22148.95775419 -.00000009  00000+0  00000+0 0  9993
2 43001  55.5440 112.3384 0012463 293.3690 203.0704  1.86231671 31031
BEIDOU-3 M2 (C20)       
1 43002U 17069B   22148.95006890 -.00000008  00000+0  00000+0 0  9993
2 43002  55.5434 112.3740 0010501 311.0989 223.2443  1.86231250 31027
BEIDOU-3 M3 (C27)       
1 43107U 18003A   22148.99117978 -.00000103  00000+0  00000+0 0  9998
2 43107  55.3218 353.3309 0005946  56.2843 311.7214  1.86232465 29792
BEIDOU-3 M4 (C28)       
1 43108U 18003B   22149.20818483 -.00000103  00000+0  00000+0 0  9993
2 43108  55.3139 353.3124 0001697 262.1170 295.3816  1.86230896 29791
BEIDOU-3 M5 (C21)       
1 43207U 18018A   22147.74796967  .00000002  00000+0  00000+0 0  9995
2 43207  55.5027 112.4936 0007647 326.1578  33.7511  1.86231601 29159
BEIDOU-3 M6 (C22)       
1 43208U 18018B   22148.35156512 -.00000004  00000+0  00000+0 0  9993
2 43208  55.5010 112.4784 0010384 302.9089  56.9576  1.86231581 29160
BEIDOU-3 M7 (C29)       
1 43245U 18029A   22149.39588057 -.00000103  00000+0  00000+0 0  9994
2 43245  55.2368 351.0878 0001387  53.8612 135.8842  1.86232597 28335
BEIDOU-3 M8 (C30)       
1 43246U 18029B   22148.99430788 -.00000103  00000+0  10000-3 0  9992
2 43246  55.2320 351.1314 0004770  11.9468 315.0759  1.86232778 28311
BEIDOU IGSO-7 (C16)     
1 43539U 18057A   22148.68154433 -.00000040  00000+0  00000+0 0  9999
2 43539  55.0727 175.8793 0049130 227.2223 199.5457  1.00264189 14319
BEIDOU-3 M9 (C23)       
1 43581U 18062A   22148.81937439  .00000010  00000+0  00000+0 0  9998
2 43581  54.2811 232.7561 0003687 268.0469 152.6593  1.86231874 26064
BEIDOU-3 M10 (C24)      
1 43582U 18062B   22148.65032941  .00000008  00000+0  00000+0 0  9992
2 43582  54.2798 232.7515 0004319   2.4837  36.6421  1.86232115 26060
BEIDOU-3 M11 (C25)      
1 43602U 18067A   22148.54599839  .00000010  00000+0  00000+0 0  9995
2 43602  54.3627 231.3687 0006719   8.4124   2.2221  1.86231731 25554
BEIDOU-3 M12 (C26)      
1 43603U 18067B   22148.79497626  .00000013  00000+0  00000+0 0  9997
2 43603  54.3601 231.3270 0003835 355.0421  92.8991  1.86231672 25577
BEIDOU-3 M13 (C32)      
1 43622U 18072A   22149.42757765 -.00000012  00000+0  00000+0 0  9998
2 43622  55.4687 111.9929 0008835 290.8879 250.5089  1.86231645 25094
BEIDOU-3 M14 (C33)      
1 43623U 18072B   22149.29668935 -.00000011  00000+0  00000+0 0  9993
2 43623  55.4710 111.9894 0006913 309.1506 234.7312  1.86231717 25092
BEIDOU-3 M15 (C34)      
1 43647U 18078A   22147.81855022 -.00000102  00000+0  10000-3 0  9992
2 43647  55.1219 351.3043 0007156  13.7681 154.6097  1.86232662 24579
BEIDOU-3 M16 (C35)      
1 43648U 18078B   22148.22827350 -.00000102  00000+0  00000+0 0  9997
2 43648  55.1276 351.2932 0005356  27.5279 323.3834  1.86232030 24590
BEIDOU-3 G1 (C59)       
1 43683U 18085A   22149.53033646 -.00000270  00000+0  00000+0 0  9992
2 43683   0.8733 168.9972 0003315 334.6378  74.3580  1.00269515 13229
BEIDOU-3 M17 (C36)      
1 43706U 18093A   22148.39333543  .00000005  00000+0  00000+0 0  9994
2 43706  54.3622 232.6554 0009733 270.7863  89.1559  1.86232057 23967
BEIDOU-3 M18 (C37)      
1 43707U 18093B   22149.33497876  .00000015  00000+0  00000+0 0  9991
2 43707  54.3636 232.6136 0007582 299.2962  63.1772  1.86232180 23972
BEIDOU-3 IGSO-1 (C38)   
1 44204U 19023A   22148.76498921 -.00000249  00000+0  00000+0 0  9996
2 44204  56.5319  53.1819 0019057 201.5958  25.3645  1.00263957 11510
BEIDOU-2 G8             
1 44231U 19027A   22149.54594061 -.00000241  00000+0  00000+0 0  9991
2 44231   0.8187  75.2292 0004362 115.0935  37.7700  1.00268872 11231
BEIDOU-3 IGSO-2 (C39)   
1 44337U 19035A   22148.66661400 -.00000045  00000+0  00000+0 0  9993
2 44337  55.1144 171.8997 0023310 198.3465 233.8189  1.00258784 10853
BEIDOU-3 M23 (C45)      
1 44542U 19061A   22148.32913045  .00000004  00000+0  00000+0 0  9992
2 44542  54.5887 232.7958 0007521 331.8522  28.1601  1.86231302 18219
BEIDOU-3 M24 (C46)      
1 44543U 19061B   22148.55141515  .00000007  00000+0  00000+0 0  9996
2 44543  54.5866 232.7573 0004774 322.1746  98.1529  1.86231672 18214
BEIDOU-3 IGSO-3         
1 44709U 19073A   22149.31369031 -.00000215  00000+0  00000+0 0  9995
2 44709  57.2965 296.5792 0022369 173.4185   8.2373  1.00262025  9618
BEIDOU-3 M21            
1 44793U 19078A   22148.70674503 -.00000103  00000+0  10000-3 0  9999
2 44793  54.9778 351.2956 0007193  18.5675 339.2315  1.86232235 17075
BEIDOU-3 M22            
1 44794U 19078B   22149.14429478 -.00000103  00000+0  00000+0 0  9993
2 44794  54.9547 351.2700 0004980  19.9806 182.7974  1.86232337 17085
BEIDOU-3 M19            
1 44864U 19090A   22149.16385073 -.00000010  00000+0  00000+0 0  9996
2 44864  55.4035 112.2139 0018830 273.4281 136.9429  1.86231876 16672
BEIDOU-3 M20            
1 44865U 19090B   22149.15212771 -.00000010  00000+0  00000+0 0  9990
2 44865  55.4066 112.2449 0017311 286.0178 206.3669  1.86231845 16640
BEIDOU-3 G2             
1 45344U 20017A   22149.56404149 -.00000136  00000+0  00000+0 0  9990
2 45344   2.0793 351.1493 0004362 106.9015  72.1023  1.00273539  8436
BEIDOU-3 G3             
1 45807U 20040A   22149.57187501 -.00000346  00000+0  00000+0 0  9994
2 45807   1.4835 302.8029 0005905 331.1254 289.5740  1.00269885  7235
